2025-313BE              
1 67482U 25313BE  26043.67630985  .00065793  00000+0  25436-2 0  9991
2 67482  97.4061 120.5119 0008520  76.2734 283.9452 15.25943177  4156
ION SCV-021             
1 67483U 25276DT  26034.18647169 -.00137880  00000+0 -12184-1 0  9992
2 67483  97.5347 109.4970 0011364 207.9438 152.1175 14.97059561  2554
STARLINK-36551          
1 67493U 26012A   26043.83335647 -.01958324  00000+0 -47211-1 0  9993
2 67493  43.0003  95.4269 0001289 266.5385  68.9489 15.43841503  5071
STARLINK-36396          
1 67494U 26012B   26043.50669403  .00091001  00000+0  15335-2 0  9998
2 67494  43.0004  98.1000 0001112 358.6780   1.4077 15.50679657  3893
STARLINK-36550          
1 67495U 26012C   26043.83335647 -.01088564  00000+0 -20215-1 0  9990
2 67495  43.0007  95.6848 0001018 260.6368 329.6886 15.50966697  5076
STARLINK-36534          
1 67496U 26012D   26043.83335647 -.01965274  00000+0 -40735-1 0  9992
2 67496  43.0002  95.4040 0001226 274.1516  70.0848 15.48200193  5018
STARLINK-36555          
1 67497U 26012E   26043.83335647 -.01956230  00000+0 -41052-1 0  9998
2 67497  43.0005  95.4234 0001130 270.0589  66.4116 15.47835082  5079
STARLINK-36081          
1 67498U 26012F   26043.83335647  .00012992  00000+0  22713-3 0  9999
2 67498  43.0009  95.6800 0001578 268.8964 323.1013 15.50551659  5015
STARLINK-36558          
1 67499U 26012G   26043.83335647  .00013941  00000+0  24328-3 0  9999
2 67499  43.0008  95.6737 0001610 271.8985 322.5802 15.50550079  5078
STARLINK-36557          
1 67500U 26012H   26043.83335647 -.01917146  00000+0 -42449-1 0  9997
2 67500  43.0003  95.1665 0001522 283.0133 157.8606 15.46232330  5076
STARLINK-36433          
1 67501U 26012J   26043.83335647 -.01897158  00000+0 -41441-1 0  9999
2 67501  42.9998  95.1281 0001524 283.5871 172.6242 15.46587151  5073
STARLINK-36554          
1 67502U 26012K   26043.83335647 -.00157240  00000+0 -27215-2 0  9994
2 67502  43.0002  95.4158 0001379 266.4462  72.2163 15.50651659  5013
