CCSDS_OMM_VERS = 2.0
CREATION_DATE  = 
ORIGINATOR     = 

OBJECT_NAME    = 2025-313BE
OBJECT_ID      = 2025-313BE
CENTER_NAME    = EARTH
REF_FRAME      = TEME
TIME_SYSTEM    = UTC
MEAN_ELEMENT_THEORY = SGP/SGP4

EPOCH          = 2026-02-12T16:13:53.171040
MEAN_MOTION    = 15.25943177
ECCENTRICITY   = .000852
INCLINATION    = 97.4061
RA_OF_ASC_NODE = 120.5119
ARG_OF_PERICENTER = 76.2734
MEAN_ANOMALY   = 283.9452

EPHEMERIS_TYPE = 0
CLASSIFICATION_TYPE = U
NORAD_CAT_ID   = 67482
ELEMENT_SET_NO = 999
REV_AT_EPOCH   = 415
BSTAR          = .25436E-2
MEAN_MOTION_DOT = .65793E-3
MEAN_MOTION_DDOT = 0

CCSDS_OMM_VERS = 2.0
CREATION_DATE  = 
ORIGINATOR     = 

OBJECT_NAME    = ION SCV-021
OBJECT_ID      = 2025-276DT
CENTER_NAME    = EARTH
REF_FRAME      = TEME
TIME_SYSTEM    = UTC
MEAN_ELEMENT_THEORY = SGP/SGP4

EPOCH          = 2026-02-03T04:28:31.154016
MEAN_MOTION    = 14.97059561
ECCENTRICITY   = .00113647
INCLINATION    = 97.5347
RA_OF_ASC_NODE = 109.4970
ARG_OF_PERICENTER = 207.9438
MEAN_ANOMALY   = 152.1175

EPHEMERIS_TYPE = 0
CLASSIFICATION_TYPE = U
NORAD_CAT_ID   = 67483
ELEMENT_SET_NO = 999
REV_AT_EPOCH   = 255
BSTAR          = -.1218394E-1
MEAN_MOTION_DOT = -.13788E-2
MEAN_MOTION_DDOT = 0

CCSDS_OMM_VERS = 2.0
CREATION_DATE  = 
ORIGINATOR     = 

OBJECT_NAME    = STARLINK-36551
OBJECT_ID      = 2026-012A
CENTER_NAME    = EARTH
REF_FRAME      = TEME
TIME_SYSTEM    = UTC
MEAN_ELEMENT_THEORY = SGP/SGP4

EPOCH          = 2026-02-12T20:00:01.999008
MEAN_MOTION    = 15.43841503
ECCENTRICITY   = .0001289
INCLINATION    = 43.0003
RA_OF_ASC_NODE = 95.4269
ARG_OF_PERICENTER = 266.5385
MEAN_ANOMALY   = 68.9489

EPHEMERIS_TYPE = 0
CLASSIFICATION_TYPE = U
NORAD_CAT_ID   = 67493
ELEMENT_SET_NO = 999
REV_AT_EPOCH   = 507
BSTAR          = -.47211E-1
MEAN_MOTION_DOT = -.1958324E-1
MEAN_MOTION_DDOT = 0

CCSDS_OMM_VERS = 2.0
CREATION_DATE  = 
ORIGINATOR     = 

OBJECT_NAME    = STARLINK-36396
OBJECT_ID      = 2026-012B
CENTER_NAME    = EARTH
REF_FRAME      = TEME
TIME_SYSTEM    = UTC
MEAN_ELEMENT_THEORY = SGP/SGP4

EPOCH          = 2026-02-12T12:09:38.364192
MEAN_MOTION    = 15.50679657
ECCENTRICITY   = .00011125
INCLINATION    = 43.0004
RA_OF_ASC_NODE = 98.1000
ARG_OF_PERICENTER = 358.6780
MEAN_ANOMALY   = 1.4077

EPHEMERIS_TYPE = 0
CLASSIFICATION_TYPE = U
NORAD_CAT_ID   = 67494
ELEMENT_SET_NO = 999
REV_AT_EPOCH   = 389
BSTAR          = .15335285E-2
MEAN_MOTION_DOT = .91001E-3
MEAN_MOTION_DDOT = 0

CCSDS_OMM_VERS = 2.0
CREATION_DATE  = 
ORIGINATOR     = 

OBJECT_NAME    = STARLINK-36550
OBJECT_ID      = 2026-012C
CENTER_NAME    = EARTH
REF_FRAME      = TEME
TIME_SYSTEM    = UTC
MEAN_ELEMENT_THEORY = SGP/SGP4

EPOCH          = 2026-02-12T20:00:01.999008
MEAN_MOTION    = 15.50966697
ECCENTRICITY   = .0001018
INCLINATION    = 43.0007
RA_OF_ASC_NODE = 95.6848
ARG_OF_PERICENTER = 260.6368
MEAN_ANOMALY   = 329.6886

EPHEMERIS_TYPE = 0
CLASSIFICATION_TYPE = U
NORAD_CAT_ID   = 67495
ELEMENT_SET_NO = 999
REV_AT_EPOCH   = 507
BSTAR          = -.20215E-1
MEAN_MOTION_DOT = -.1088564E-1
MEAN_MOTION_DDOT = 0

CCSDS_OMM_VERS = 2.0
CREATION_DATE  = 
ORIGINATOR     = 

OBJECT_NAME    = STARLINK-36534
OBJECT_ID      = 2026-012D
CENTER_NAME    = EARTH
REF_FRAME      = TEME
TIME_SYSTEM    = UTC
MEAN_ELEMENT_THEORY = SGP/SGP4

EPOCH          = 2026-02-12T20:00:01.999008
MEAN_MOTION    = 15.48200193
ECCENTRICITY   = .0001226
INCLINATION    = 43.0002
RA_OF_ASC_NODE = 95.4040
ARG_OF_PERICENTER = 274.1516
MEAN_ANOMALY   = 70.0848

EPHEMERIS_TYPE = 0
CLASSIFICATION_TYPE = U
NORAD_CAT_ID   = 67496
ELEMENT_SET_NO = 999
REV_AT_EPOCH   = 501
BSTAR          = -.40735E-1
MEAN_MOTION_DOT = -.1965274E-1
MEAN_MOTION_DDOT = 0

CCSDS_OMM_VERS = 2.0
CREATION_DATE  = 
ORIGINATOR     = 

OBJECT_NAME    = STARLINK-36555
OBJECT_ID      = 2026-012E
CENTER_NAME    = EARTH
REF_FRAME      = TEME
TIME_SYSTEM    = UTC
MEAN_ELEMENT_THEORY = SGP/SGP4

EPOCH          = 2026-02-12T20:00:01.999008
MEAN_MOTION    = 15.47835082
ECCENTRICITY   = .000113
INCLINATION    = 43.0005
RA_OF_ASC_NODE = 95.4234
ARG_OF_PERICENTER = 270.0589
MEAN_ANOMALY   = 66.4116

EPHEMERIS_TYPE = 0
CLASSIFICATION_TYPE = U
NORAD_CAT_ID   = 67497
ELEMENT_SET_NO = 999
REV_AT_EPOCH   = 507
BSTAR          = -.41052E-1
MEAN_MOTION_DOT = -.195623E-1
MEAN_MOTION_DDOT = 0

CCSDS_OMM_VERS = 2.0
CREATION_DATE  = 
ORIGINATOR     = 

OBJECT_NAME    = STARLINK-36081
OBJECT_ID      = 2026-012F
CENTER_NAME    = EARTH
REF_FRAME      = TEME
TIME_SYSTEM    = UTC
MEAN_ELEMENT_THEORY = SGP/SGP4

EPOCH          = 2026-02-12T20:00:01.999008
MEAN_MOTION    = 15.50551659
ECCENTRICITY   = .0001578
INCLINATION    = 43.0009
RA_OF_ASC_NODE = 95.6800
ARG_OF_PERICENTER = 268.8964
MEAN_ANOMALY   = 323.1013

EPHEMERIS_TYPE = 0
CLASSIFICATION_TYPE = U
NORAD_CAT_ID   = 67498
ELEMENT_SET_NO = 999
REV_AT_EPOCH   = 501
BSTAR          = .22713E-3
MEAN_MOTION_DOT = .12992E-3
MEAN_MOTION_DDOT = 0

CCSDS_OMM_VERS = 2.0
CREATION_DATE  = 
ORIGINATOR     = 

OBJECT_NAME    = STARLINK-36558
OBJECT_ID      = 2026-012G
CENTER_NAME    = EARTH
REF_FRAME      = TEME
TIME_SYSTEM    = UTC
MEAN_ELEMENT_THEORY = SGP/SGP4

EPOCH          = 2026-02-12T20:00:01.999008
MEAN_MOTION    = 15.50550079
ECCENTRICITY   = .000161
INCLINATION    = 43.0008
RA_OF_ASC_NODE = 95.6737
ARG_OF_PERICENTER = 271.8985
MEAN_ANOMALY   = 322.5802

EPHEMERIS_TYPE = 0
CLASSIFICATION_TYPE = U
NORAD_CAT_ID   = 67499
ELEMENT_SET_NO = 999
REV_AT_EPOCH   = 507
BSTAR          = .24328E-3
MEAN_MOTION_DOT = .13941E-3
MEAN_MOTION_DDOT = 0

CCSDS_OMM_VERS = 2.0
CREATION_DATE  = 
ORIGINATOR     = 

OBJECT_NAME    = STARLINK-36557
OBJECT_ID      = 2026-012H
CENTER_NAME    = EARTH
REF_FRAME      = TEME
TIME_SYSTEM    = UTC
MEAN_ELEMENT_THEORY = SGP/SGP4

EPOCH          = 2026-02-12T20:00:01.999008
MEAN_MOTION    = 15.46232330
ECCENTRICITY   = .0001522
INCLINATION    = 43.0003
RA_OF_ASC_NODE = 95.1665
ARG_OF_PERICENTER = 283.0133
MEAN_ANOMALY   = 157.8606

EPHEMERIS_TYPE = 0
CLASSIFICATION_TYPE = U
NORAD_CAT_ID   = 67500
ELEMENT_SET_NO = 999
REV_AT_EPOCH   = 507
BSTAR          = -.42449E-1
MEAN_MOTION_DOT = -.1917146E-1
MEAN_MOTION_DDOT = 0

CCSDS_OMM_VERS = 2.0
CREATION_DATE  = 
ORIGINATOR     = 

OBJECT_NAME    = STARLINK-36433
OBJECT_ID      = 2026-012J
CENTER_NAME    = EARTH
REF_FRAME      = TEME
TIME_SYSTEM    = UTC
MEAN_ELEMENT_THEORY = SGP/SGP4

EPOCH          = 2026-02-12T20:00:01.999008
MEAN_MOTION    = 15.46587151
ECCENTRICITY   = .0001524
INCLINATION    = 42.9998
RA_OF_ASC_NODE = 95.1281
ARG_OF_PERICENTER = 283.5871
MEAN_ANOMALY   = 172.6242

EPHEMERIS_TYPE = 0
CLASSIFICATION_TYPE = U
NORAD_CAT_ID   = 67501
ELEMENT_SET_NO = 999
REV_AT_EPOCH   = 507
BSTAR          = -.41441E-1
MEAN_MOTION_DOT = -.1897158E-1
MEAN_MOTION_DDOT = 0

CCSDS_OMM_VERS = 2.0
CREATION_DATE  = 
ORIGINATOR     = 

OBJECT_NAME    = STARLINK-36554
OBJECT_ID      = 2026-012K
CENTER_NAME    = EARTH
REF_FRAME      = TEME
TIME_SYSTEM    = UTC
MEAN_ELEMENT_THEORY = SGP/SGP4

EPOCH          = 2026-02-12T20:00:01.999008
MEAN_MOTION    = 15.50651659
ECCENTRICITY   = .0001379
INCLINATION    = 43.0002
RA_OF_ASC_NODE = 95.4158
ARG_OF_PERICENTER = 266.4462
MEAN_ANOMALY   = 72.2163

EPHEMERIS_TYPE = 0
CLASSIFICATION_TYPE = U
NORAD_CAT_ID   = 67502
ELEMENT_SET_NO = 999
REV_AT_EPOCH   = 501
BSTAR          = -.27215E-2
MEAN_MOTION_DOT = -.15724E-2
MEAN_MOTION_DDOT = 0

